NORAD_CAT_ID,OBJECT_NAME,OBJECT_TYPE,EPOCH,MEAN_MOTION,ECCENTRICITY,INCLINATION,RA_OF_ASC_NODE,ARG_OF_PERICENTER,MEAN_ANOMALY,BSTAR,MEAN_MOTION_DOT,MEAN_MOTION_DDOT,TLE_LINE0,TLE_LINE1,TLE_LINE2,SEMIMAJOR_AXIS,PERIOD,APOGEE,PERIGEE,DECAYED
53796.0,STARLINK-4721,PAYLOAD,2023-05-14 11:35:54,15.08839686,0.0001344,53.2172,198.564,96.4388,263.6757,3.2587e-05,2.31e-06,0.0,0 STARLINK-4721,1 53796U 22111Z   23134.48327239  .00000231  00000-0  32587-4 0  9993,2 53796  53.2172 198.5640 0001344  96.4388 263.6757 15.08839686 38477,6917.881,95.438,540.676,538.817,0.0
53796.0,STARLINK-4721,PAYLOAD,2023-05-14 21:08:13,15.08838435,0.0001311,53.2171,196.7796,88.8692,271.2451,4.9812e-05,5.05e-06,0.0,0 STARLINK-4721,1 53796U 22111Z   23134.88071290  .00000505  00000-0  49812-4 0  9993,2 53796  53.2171 196.7796 0001311  88.8692 271.2451 15.08838435 38539,6917.885,95.438,540.657,538.843,0.0
53796.0,STARLINK-4721,PAYLOAD,2023-05-15 11:26:41,15.08837952,0.0001322,53.2172,194.1035,88.0945,272.0199,7.4416e-05,8.97e-06,0.0,0 STARLINK-4721,1 53796U 22111Z   23135.47687362  .00000897  00000-0  74416-4 0  9994,2 53796  53.2172 194.1035 0001322  88.0945 272.0199 15.08837952 38624,6917.887,95.438,540.666,538.837,0.0
53796.0,STARLINK-4721,PAYLOAD,2023-05-15 20:59:00,15.08836486,0.0001346,53.2172,192.3194,87.5739,272.5407,5.4023e-05,5.72e-06,0.0,0 STARLINK-4721,1 53796U 22111Z   23135.87431581  .00000572  00000-0  54023-4 0  9990,2 53796  53.2172 192.3194 0001346  87.5739 272.5407 15.08836486 38685,6917.891,95.438,540.687,538.825,0.0
53796.0,STARLINK-4721,PAYLOAD,2023-05-16 03:20:33,15.08838594,0.0001265,53.216,191.1302,88.1107,272.003,4.9993e-05,5.08e-06,0.0,0 STARLINK-4721,1 53796U 22111Z   23136.13927482  .00000508  00000-0  49993-4 0  9999,2 53796  53.2160 191.1302 0001265  88.1107 272.0030 15.08838594 37976,6917.885,95.438,540.625,538.875,0.0
53796.0,STARLINK-4721,PAYLOAD,2023-05-16 12:52:52,15.08837292,0.0001249,53.2163,189.3461,87.8174,272.2961,1.2748e-06,-2.68e-06,0.0,0 STARLINK-4721,1 53796U 22111Z   23136.53671767 -.00000268  00000-0  12748-5 0  9998,2 53796  53.2163 189.3461 0001249  87.8174 272.2961 15.08837292 38785,6917.889,95.438,540.618,538.89,0.0
53796.0,STARLINK-4721,PAYLOAD,2023-05-16 20:49:47,15.08841169,0.0001257,53.2166,187.8595,87.7527,272.361,3.5684e-05,2.8e-06,0.0,0 STARLINK-4721,1 53796U 22111Z   23136.86791399  .00000280  00000-0  35684-4 0  9994,2 53796  53.2166 187.8595 0001257  87.7527 272.3610 15.08841169 38835,6917.877,95.437,540.611,538.872,0.0
53796.0,STARLINK-4721,PAYLOAD,2023-05-17 09:32:52,15.08842546,0.0001189,53.2163,185.4806,87.597,272.5158,3.6627e-05,2.95e-06,0.0,0 STARLINK-4721,1 53796U 22111Z   23137.39783226  .00000295  00000-0  36627-4 0  9997,2 53796  53.2163 185.4806 0001189  87.5970 272.5158 15.08842546 38160,6917.873,95.437,540.56,538.915,0.0
53796.0,STARLINK-4721,PAYLOAD,2023-05-17 20:40:34,15.08840182,0.0001174,53.2163,183.399,87.1061,273.0066,3.1692e-05,2.17e-06,0.0,0 STARLINK-4721,1 53796U 22111Z   23137.86151317  .00000217  00000-0  31692-4 0  9990,2 53796  53.2163 183.3990 0001174  87.1061 273.0066 15.08840182 38980,6917.88,95.438,540.557,538.933,0.0
53796.0,STARLINK-4721,PAYLOAD,2023-05-18 12:34:26,15.08838059,0.0001176,53.2163,180.4253,88.0207,272.092,4.4962e-05,4.28e-06,0.0,0 STARLINK-4721,1 53796U 22111Z   23138.52391414  .00000428  00000-0  44962-4 0  9996,2 53796  53.2163 180.4253 0001176  88.0207 272.0920 15.08838059 38331,6917.886,95.438,540.565,538.938,0.0
53796.0,STARLINK-4721,PAYLOAD,2023-05-19 07:39:04,15.08837944,0.0001187,53.2162,176.8569,86.8167,273.296,-1.1888e-05,-4.77e-06,0.0,0 STARLINK-4721,1 53796U 22111Z   23139.31879633 -.00000477  00000-0 -11888-4 0  9995,2 53796  53.2162 176.8569 0001187  86.8167 273.2960 15.08837944 39208,6917.887,95.438,540.573,538.931,0.0
53796.0,STARLINK-4721,PAYLOAD,2023-05-20 02:43:41,15.08837842,0.0001212,53.2166,173.2879,93.0649,267.0482,1.5157e-05,-4.7e-07,0.0,0 STARLINK-4721,1 53796U 22111Z   23140.11367583 -.00000047  00000-0  15157-4 0  9996,2 53796  53.2166 173.2879 0001212  93.0649 267.0482 15.08837842 38577,6917.887,95.438,540.59,538.914,0.0
53796.0,STARLINK-4721,PAYLOAD,2023-05-20 18:37:33,15.08836869,0.0001271,53.2167,170.3135,100.0987,260.0149,2.6962e-05,1.41e-06,0.0,0 STARLINK-4721,1 53796U 22111Z   23140.77607713  .00000141  00000-0  26962-4 0  9990,2 53796  53.2167 170.3135 0001271 100.0987 260.0149 15.08836869 39426,6917.89,95.438,540.634,538.876,0.0
53796.0,STARLINK-4721,PAYLOAD,2023-05-21 07:20:38,15.08830615,0.00012,53.2168,167.9364,87.2063,272.9066,-1.3748e-05,-5.07e-06,0.0,0 STARLINK-4721,1 53796U 22111Z   23141.30600399 -.00000507  00000-0 -13748-4 0  9999,2 53796  53.2168 167.9364 0001200  87.2063 272.9066 15.08830615 38754,6917.909,95.438,540.604,538.944,0.0
53796.0,STARLINK-4721,PAYLOAD,2023-05-21 18:28:20,15.08832167,0.000122,53.2168,165.8552,92.3038,267.8094,-1.0786e-05,-4.59e-06,0.0,0 STARLINK-4721,1 53796U 22111Z   23141.76968491 -.00000459  00000-0 -10786-4 0  9994,2 53796  53.2168 165.8552 0001220  92.3038 267.8094 15.08832167 39570,6917.904,95.438,540.613,538.925,0.0
53796.0,STARLINK-4721,PAYLOAD,2023-05-22 07:11:25,15.08836386,0.0001217,53.2165,163.4759,93.2244,266.8887,3.7092e-05,3.02e-06,0.0,0 STARLINK-4721,1 53796U 22111Z   23142.29960258  .00000302  00000-0  37092-4 0  9990,2 53796  53.2165 163.4759 0001217  93.2244 266.8887 15.08836386 38907,6917.891,95.438,540.598,538.915,0.0
53796.0,STARLINK-4721,PAYLOAD,2023-05-22 08:46:48,15.08836395,0.0001218,53.2165,163.1786,93.0032,267.11,3.6726e-05,2.97e-06,0.0,0 STARLINK-4721,1 53796U 22111Z   23142.36584278  .00000297  00000-0  36726-4 0  9998,2 53796  53.2165 163.1786 0001218  93.0032 267.1100 15.08836395 39664,6917.891,95.438,540.599,538.914,0.0
53796.0,STARLINK-4721,PAYLOAD,2023-05-22 18:19:07,15.08841358,0.0001219,53.2166,161.3945,93.9758,266.1374,3.9233e-05,3.37e-06,0.0,0 STARLINK-4721,1 53796U 22111Z   23142.76327984  .00000337  00000-0  39233-4 0  9992,2 53796  53.2166 161.3945 0001219  93.9758 266.1374 15.08841358 39721,6917.876,95.437,540.585,538.898,0.0
53796.0,STARLINK-4721,PAYLOAD,2023-05-23 10:12:59,15.08834239,0.000124,53.2164,158.4207,93.2133,266.9001,7.5515e-05,9.14e-06,0.0,0 STARLINK-4721,1 53796U 22111Z   23143.42568468  .00000914  00000-0  75515-4 0  9994,2 53796  53.2164 158.4207 0001240  93.2133 266.9001 15.08834239 39074,6917.898,95.438,540.621,538.905,0.0
53796.0,STARLINK-4721,PAYLOAD,2023-05-23 18:09:54,15.0883634,0.0001225,53.2164,156.9342,94.241,265.8722,7.3759e-05,8.86e-06,0.0,0 STARLINK-4721,1 53796U 22111Z   23143.75688419  .00000886  00000-0  73759-4 0  9995,2 53796  53.2164 156.9342 0001225  94.2410 265.8722 15.08836340 39870,6917.892,95.438,540.604,538.909,0.0
53796.0,STARLINK-4721,PAYLOAD,2023-05-24 08:28:22,15.08842182,0.0001209,53.2163,154.258,94.1311,265.9819,7.0091e-05,8.28e-06,0.0,0 STARLINK-4721,1 53796U 22111Z   23144.35304070  .00000828  00000-0  70091-4 0  9992,2 53796  53.2163 154.2580 0001209  94.1311 265.9819 15.08842182 39212,6917.874,95.437,540.575,538.902,0.0
53796.0,STARLINK-4721,PAYLOAD,2023-05-26 04:59:10,15.08836996,0.0001201,53.2161,145.9311,94.263,265.8499,-2.0575e-05,-6.15e-06,0.0,0 STARLINK-4721,1 53796U 22111Z   23146.20776508 -.00000615  00000-0 -20575-4 0  9995,2 53796  53.2161 145.9311 0001201  94.2630 265.8499 15.08836996 39495,6917.89,95.438,540.585,538.924,0.0
53796.0,STARLINK-4721,PAYLOAD,2023-05-26 09:45:20,15.08835872,0.0001215,53.2164,145.0394,93.8091,266.304,-3.2299e-05,-8.02e-06,0.0,0 STARLINK-4721,1 53796U 22111Z   23146.40648648 -.00000802  00000-0 -32299-4 0  9994,2 53796  53.2164 145.0394 0001215  93.8091 266.3040 15.08835872 40279,6917.893,95.438,540.599,538.917,0.0
53796.0,STARLINK-4721,PAYLOAD,2023-05-27 06:25:20,15.08839085,0.0001196,53.2165,141.1738,89.808,270.3049,1.1945e-05,-9.8e-07,0.0,0 STARLINK-4721,1 53796U 22111Z   23147.26760398 -.00000098  00000-0  11945-4 0  9997,2 53796  53.2165 141.1738 0001196  89.8080 270.3049 15.08839085 39654,6917.883,95.438,540.576,538.921,0.0
53796.0,STARLINK-4721,PAYLOAD,2023-05-27 22:19:12,15.08836222,0.0001189,53.2165,138.2003,89.233,270.8798,6.6563e-05,7.72e-06,0.0,0 STARLINK-4721,1 53796U 22111Z   23147.93000397  .00000772  00000-0  66563-4 0  9991,2 53796  53.2165 138.2003 0001189  89.2330 270.8798 15.08836222 40502,6917.892,95.438,540.579,538.934,0.0
53796.0,STARLINK-4721,PAYLOAD,2023-05-28 06:16:08,15.08833123,0.0001203,53.2166,136.7134,89.5327,270.5803,3.6318e-05,2.9e-06,0.0,0 STARLINK-4721,1 53796U 22111Z   23148.26120807  .00000290  00000-0  36318-4 0  9997,2 53796  53.2166 136.7134 0001203  89.5327 270.5803 15.08833123 40553,6917.901,95.438,540.599,538.934,0.0
53796.0,STARLINK-4721,PAYLOAD,2023-05-28 15:48:27,15.08836224,0.0001223,53.2168,134.9293,89.433,270.6803,4.7905e-05,4.75e-06,0.0,0 STARLINK-4721,1 53796U 22111Z   23148.65864698  .00000475  00000-0  47905-4 0  9992,2 53796  53.2168 134.9293 0001223  89.4330 270.6803 15.08836224 39864,6917.892,95.438,540.603,538.911,0.0
53796.0,STARLINK-4721,PAYLOAD,2023-05-29 09:17:41,15.08835493,0.0001223,53.2169,131.6585,89.6937,270.4195,-1.3044e-06,-3.09e-06,0.0,0 STARLINK-4721,1 53796U 22111Z   23149.38729037 -.00000309  00000-0 -13044-5 0  9996,2 53796  53.2169 131.6585 0001223  89.6937 270.4195 15.08835493 40724,6917.894,95.438,540.605,538.913,0.0
53796.0,STARLINK-4721,PAYLOAD,2023-05-29 15:39:14,15.08835153,0.000122,53.2168,130.469,90.1642,269.949,-2.6343e-05,-7.07e-06,0.0,0 STARLINK-4721,1 53796U 22111Z   23149.65225197 -.00000707  00000-0 -26343-4 0  9991,2 53796  53.2168 130.4690 0001220  90.1642 269.9490 15.08835153 40762,6917.895,95.438,540.604,538.916,0.0
53796.0,STARLINK-4721,PAYLOAD,2023-05-30 02:46:55,15.08843981,3.77e-05,53.2155,128.3856,131.6479,228.4546,7.8694e-05,9.65e-06,0.0,0 STARLINK-4721,1 53796U 22111Z   23150.11591852  .00000965  00000-0  78694-4 0  9998,2 53796  53.2155 128.3856 0000377 131.6479 228.4546 15.08843981 40084,6917.868,95.437,539.994,539.472,0.0
